ORBCOMM FM115           
1 41186U 15081H   24167.54536420  .00001300  00000+0  29865-3 0  9990
2 41186  47.0004 341.1579 0001201 220.9562 139.1235 14.60806227454134
ORBCOMM FM108           
1 41187U 15081J   24167.35082112  .00001378  00000+0  34324-3 0  9995
2 41187  47.0058  37.5121 0001746  63.2318 296.8746 14.56632947453288
ORBCOMM FM117           
1 41188U 15081K   24167.45424862  .00001642  00000+0  40147-3 0  9993
2 41188  47.0026  35.9110 0002653  78.1567 281.9616 14.56683437453341
ORBCOMM FM116           
1 41189U 15081L   24167.30582307  .00000755  00000+0  20488-3 0  9997
2 41189  47.0012 126.4263 0001529 183.5165 176.5709 14.56647435452134
